GLOBALSTAR M063         
1 26081U 00008A   24157.33954928 -.00000020  00000+0  91412-3 0  9999
2 26081  51.9978  24.0402 0004230 321.1391 210.8505 11.86156039112857
GLOBALSTAR M062         
1 26082U 00008B   24157.63386519 -.00000078  00000+0  14239-3 0  9993
2 26082  51.9830 123.0852 0007368  27.7088 143.1632 12.43437520449775
GLOBALSTAR M060         
1 26083U 00008C   24157.38911429  .00000072  00000+0  16197-2 0  9997
2 26083  52.0045  30.5066 0004045  75.9243  95.0380 12.17634644106460
GLOBALSTAR M064         
1 26084U 00008D   24157.62767548 -.00000094  00000+0 -15325-3 0  9995
2 26084  52.0011 126.5485 0001619  41.5662 318.5293 11.88519699122433
GLOBALSTAR M065         
1 31571U 07020A   24157.55706743 -.00000106  00000+0 -14879-4 0  9993
2 31571  51.9906 292.5732 0010168 190.3741 294.2212 12.61971316785852
GLOBALSTAR M069         
1 31573U 07020C   24157.52965420 -.00000052  00000+0  28901-3 0  9990
2 31573  51.9947 248.4985 0000723 168.9744 204.2184 12.62274729786988
GLOBALSTAR M072         
1 31574U 07020D   24157.76294582 -.00000040  00000+0  35847-3 0  9995
2 31574  52.0104 343.7146 0001087 102.9051 270.5253 12.62272883785449
GLOBALSTAR M071         
1 31576U 07020F   24157.66498338 -.00000041  00000+0  34860-3 0  9996
2 31576  52.0063 253.2437 0000445 119.6869  28.0318 12.62267663786913
